ASTRA 1D                
1 23331U 94070A   17252.45484687 -.00000276  00000-0  00000-0 0  9991
2 23331   7.6862  48.6622 0003260 116.9165 274.3489  1.00270499 84057
ASTRA 1F                
1 23842U 96021A   17252.56299182  .00000125  00000-0  00000-0 0  9994
2 23842   0.0743 305.7549 0004188 236.9467  53.0614  1.00270204 20238
AMC-1 (GE-1)            
1 24315U 96054A   17251.62993293  .00000046  00000-0  00000-0 0  9998
2 24315   1.7371  84.6731 0002927  94.4619 266.3821  1.00272812 14206
AMC-2 (GE-2)            
1 24713U 97002A   17252.47454025 -.00000222  00000-0  00000-0 0  9990
2 24713   4.4870  65.4839 0004976 103.4219 265.8053  1.00271106 26211
AMC-3 (GE-3)            
1 24936U 97050A   17252.38714997 -.00000273  00000-0  00000-0 0  9993
2 24936   0.5525  92.1131 0002884  84.7069 239.1746  1.00270309 20316
NSS-5                   
1 24957U 97053A   17252.56279753  .00000095  00000-0  00000-0 0  9996
2 24957   3.9962  68.8637 0003201  99.2942  73.7665  1.00272984 73060
ASTRA 1G                
1 25071U 97076A   17252.71368755  .00000094  00000-0  00000+0 0  9995
2 25071   2.4898  78.0813 0003323  97.2641 121.6184  1.00271146 72425
NSS-806                 
1 25239U 98014A   17252.48101652 -.00000293  00000-0  00000-0 0  9992
2 25239   0.0935 310.7632 0004552 222.9639 300.6539  1.00271043 15191
ASTRA 2A                
1 25462U 98050A   17252.74629262 -.00000373  00000-0  00000+0 0  9999
2 25462   0.0767 253.0067 0002430 280.2903 197.8513  1.00270231 69631
ASTRA 1H                
1 25785U 99033A   17252.79218198  .00000125  00000-0  00000+0 0  9990
2 25785   3.9819  69.0168 0002514  98.0841 150.6320  1.00275491 66672
AMC-4 (GE-4)            
1 25954U 99060A   17252.40632401  .00000073  00000-0  00000-0 0  9996
2 25954   0.0355 277.1485 0002933 247.1660 195.7074  1.00272693 11608
ASTRA 2B                
1 26494U 00054A   17252.32428294 -.00000166  00000-0  00000-0 0  9999
2 26494   2.3786  78.7338 0004608  85.9297 281.0359  1.00271564 14770
AMC-7 (GE-7)            
1 26495U 00054B   17252.40652844  .00000074  00000-0  00000-0 0  9996
2 26495   0.0168  94.2217 0001778 113.5815 152.2003  1.00273349 62128
NSS-11 (AAP-1)          
1 26554U 00059A   17252.44215993 -.00000359  00000-0  00000-0 0  9998
2 26554   0.0472 299.4130 0002710 239.9555  76.6442  1.00271504  9191
AMC-6 (GE-6)            
1 26580U 00067A   17252.41238903 -.00000230  00000-0  00000-0 0  9997
2 26580   0.0482 301.3652 0003090 238.6172 234.1310  1.00271215 61851
ASTRA 2D                
1 26638U 00081A   17252.06120431  .00000035  00000-0  00000-0 0  9996
2 26638   3.8076  69.6524 0001596  88.4196 271.9742  1.00274310 20798
AMC-8 (GE-8)            
1 26639U 00081B   17252.45093128  .00000090  00000-0  00000-0 0  9993
2 26639   0.0360 292.5612 0002374 240.5304 198.9233  1.00272184 61229
ASTRA 2C                
1 26853U 01025A   17252.60702399  .00000032  00000-0  00000-0 0  9990
2 26853   0.5726  91.5458 0003885  77.7986  98.3122  1.00271925 12944
ASTRA 3A                
1 27400U 02015B   17251.35591461 -.00000292  00000-0  00000-0 0  9995
2 27400   3.9673  68.3700 0002978  98.9166 261.4867  1.00269963 56609
NSS-7                   
1 27414U 02019A   17252.31877848 -.00000169  00000-0  00000-0 0  9990
2 27414   2.0643  82.6135 0002443  83.1405 277.5670  1.00272688 56452
NSS-6                   
1 27603U 02057A   17252.60525809 -.00000284  00000-0  00000-0 0  9999
2 27603   0.0124 130.7111 0002547  78.0293  92.9939  1.00270318 53986
AMC-9 (GE-12)           
1 27820U 03024A   17252.49160934 -.00000118  00000-0  00000+0 0  9991
2 27820   0.1484  90.1361 0037940 310.1154  24.3816  1.00204180 52227
AMC-10 (GE-10)          
1 28154U 04003A   17252.33657068  .00000074  00000-0  00000+0 0  9992
2 28154   0.0470 297.6646 0002037 202.3917 194.6869  1.00271623 49816
AMC-11 (GE-11)          
1 28252U 04017A   17252.39424339  .00000055  00000-0  00000-0 0  9995
2 28252   0.0592 315.0363 0002641 224.4645 180.0505  1.00271763 48826
AMC-15                  
1 28446U 04041A   17252.52901675 -.00000103  00000-0  00000+0 0  9999
2 28446   0.0577 315.1885 0002148 225.8826 253.0940  1.00271736 47274
AMC-16                  
1 28472U 04048A   17252.35813199 -.00000220  00000-0  00000-0 0  9990
2 28472   0.0479 312.5341 0002814 226.0025 213.9837  1.00270831 46629
NSS-10 (AMC-12)         
1 28526U 05003A   17252.48084291 -.00000265  00000-0  00000+0 0  9997
2 28526   0.0426 314.1239 0002881 214.7689 315.4821  1.00272879 46208
ASTRA 1KR               
1 29055U 06012A   17252.87407293  .00000105  00000-0  00000+0 0  9992
2 29055   0.0815 276.8141 0004654 284.2992 121.8584  1.00269369 41630
AMC-18                  
1 29644U 06054B   17252.52901675 -.00000103  00000-0  00000-0 0  9997
2 29644   0.0488 292.8044 0002733 226.1578 275.3068  1.00271979 39472
ASTRA 1L                
1 31306U 07016A   17252.45184781  .00000106  00000-0  00000-0 0  9999
2 31306   0.0925 297.9870 0002560 286.0502 306.5358  1.00274561 12963
ASTRA 4A (SIRIUS 4)     
1 32299U 07057A   17252.46157071  .00000018  00000-0  00000-0 0  9991
2 32299   0.0532 301.4031 0002888 230.7631 347.5124  1.00271982 19597
AMC-21                  
1 33275U 08038B   17252.48979046  .00000022  00000-0  00000-0 0  9997
2 33275   0.0360 329.9890 0002884 218.1503 212.0165  1.00272102 33371
ASTRA 1M                
1 33436U 08057A   17252.78030168  .00000105  00000-0  00000+0 0  9994
2 33436   0.0114 212.9747 0005153 305.8480 130.2941  1.00272506 32368
CIEL-2                  
1 33453U 08063A   17252.74702098  .00000043  00000-0  00000+0 0  9995
2 33453   0.0462 294.6546 0003274 243.6796 310.7283  1.00272893 32046
NSS-9                   
1 33749U 09008A   17252.52059873  .00000057  00000-0  00000-0 0  9991
2 33749   0.0577 316.9927 0002215 216.4085 185.8329  1.00272086 31400
SES-7 (PROTOSTAR 2)     
1 34941U 09027A   17252.44215993 -.00000359  00000-0  00000+0 0  9990
2 34941   0.0259  87.1179 0002201 150.7009  18.2968  1.00272373 30506
NSS-12                  
1 36032U 09058A   17251.87476147  .00000057  00000-0  00000-0 0  9998
2 36032   0.0406 292.5879 0002403 240.6822 186.7456  1.00272351 28818
SES-1                   
1 36516U 10016A   17252.49160944 -.00000129  00000-0  00000+0 0  9995
2 36516   0.0564 309.0970 0002079 220.8555 254.7704  1.00271531 27021
ASTRA 3B                
1 36581U 10021A   17252.45184781  .00000123  00000-0  00000-0 0  9998
2 36581   0.0483 325.2446 0002816 207.4964   2.0926  1.00272224 26765
SES-3                   
1 37748U 11035A   17252.41216516 -.00000116  00000-0  00000+0 0  9990
2 37748   0.0495 304.2022 0002197 213.9769 235.8527  1.00271162 22587
ASTRA 1N                
1 37775U 11041A   17252.82965926  .00000105  00000-0  00000+0 0  9995
2 37775   0.0592 335.2466 0002365 140.5427 191.1387  1.00271745 22286
SES-2                   
1 37809U 11049A   17252.50007757 -.00000210  00000-0  00000+0 0  9993
2 37809   0.0437 313.8396 0002303 210.3151 277.6157  1.00272088 21902
QUETZSAT 1              
1 37826U 11054A   17252.28521509 -.00000256  00000-0  00000+0 0  9999
2 37826   0.0594 313.9467 0002685 203.0707 217.1934  1.00271320 21982
SES-4                   
1 38087U 12007A   17252.26785434 -.00000182  00000-0  00000-0 0  9994
2 38087   0.0184  39.6836 0002243 130.7662 252.4839  1.00271715 20146
SES-5                   
1 38652U 12036A   17252.46157071  .00000019  00000-0  00000-0 0  9994
2 38652   0.0480 267.2717 0002012 263.0857 349.4897  1.00271845 12393
ASTRA 2F                
1 38778U 12051A   17251.95447233  .00000136  00000-0  00000+0 0  9994
2 38778   0.0820 243.4915 0004386 316.4095 160.0946  1.00271660 18178
SES-6                   
1 39172U 13026A   17252.14479812 -.00000275  00000-0  00000-0 0  9992
2 39172   0.0560 307.6932 0002494 244.4440 167.8695  1.00269915 15614
O3B FM5                 
1 39188U 13031A   17252.45753379 -.00000020  00000-0  00000-0 0  9990
2 39188   0.0570  11.4500 0008316 167.0189 181.5363  5.00115882 76891
O3B FM4                 
1 39189U 13031B   17252.34960462 -.00000020  00000-0  00000-0 0  9992
2 39189   0.0361 347.4627 0002526  60.3745 312.1869  5.00115799 76904
O3B FM2                 
1 39190U 13031C   17252.32460903 -.00000020  00000-0  00000-0 0  9997
2 39190   0.0375 340.0349 0003104  59.8238 320.1667  5.00115701 76878
O3B PFM                 
1 39191U 13031D   17252.34792024 -.00000020  00000-0  00000+0 0  9991
2 39191   0.0495   7.1514 0003278 126.3366 226.5419  5.00115879 76882
ASTRA 2E                
1 39285U 13056A   17251.95333878  .00000136  00000-0  00000-0 0  9994
2 39285   0.0351   6.1445 0001998 153.9064 199.9569  1.00267647 14357
SES-8                   
1 39460U 13071A   17251.76946594 -.00000283  00000-0  00000+0 0  9993
2 39460   0.0406 271.8510 0002384 240.1809 207.9933  1.00271709 13755
ASTRA 5B                
1 39617U 14011B   17252.56785373  .00000140  00000-0  00000-0 0  9999
2 39617   0.1026 294.3234 0004644 238.8935  51.5388  1.00274524 12569
O3B FM3                 
1 40079U 14038A   17252.45969390 -.00000020  00000-0  00000-0 0  9991
2 40079   0.0427 356.4500 0004863 178.4369 185.1206  5.00115751 52989
O3B FM7                 
1 40080U 14038B   17252.41437460 -.00000020  00000-0  00000-0 0  9997
2 40080   0.0403 355.7232 0003137 177.3131 186.9707  5.00115465 57765
O3B FM6                 
1 40081U 14038C   17252.43734000 -.00000020  00000-0  00000-0 0  9990
2 40081   0.0416 356.2221 0003616 176.8797 186.9058  5.00114825 57744
O3B FM8                 
1 40082U 14038D   17252.48195759 -.00000020  00000-0  00000-0 0  9998
2 40082   0.0389 353.6560 0003225 153.4990 212.8676  5.00115974 57856
O3B FM10                
1 40348U 14083A   17252.50402558 -.00000020  00000-0  00000-0 0  9994
2 40348   0.0474   1.6143 0002307 191.4588 166.9236  5.00115891 49825
O3B FM11                
1 40349U 14083B   17252.32598058 -.00000020  00000-0  00000-0 0  9996
2 40349   0.0481   4.4578 0001996 175.4074 180.1375  5.00115705 49817
O3B FM12                
1 40350U 14083C   17252.39298470 -.00000020  00000-0  00000-0 0  9990
2 40350   0.0469   4.0456 0002320 162.7993 193.1637  5.00115532 49821
O3B FM9                 
1 40351U 14083D   17252.37047097 -.00000020  00000-0  00000-0 0  9996
2 40351   0.0492   4.1463 0002395 178.4439 177.4112  5.00115547 49838
ASTRA 2G                
1 40364U 14089A   17251.95451975  .00000136  00000-0  00000-0 0  9990
2 40364   0.0064 301.8563 0002735 159.0433 259.1437  1.00268395  9854
SES-9                   
1 41380U 16013A   17252.72986401 -.00000360  00000-0  00000+0 0  9990
2 41380   0.0452 313.7853 0001427 202.3813 203.8529  1.00271490  5640
SES-10                  
1 42432U 17017A   17252.21792396 -.00000287  00000-0  00000+0 0  9994
2 42432   0.0149 130.6168 0002815  47.8272 181.5568  1.00270916  1665
SES-15                  
1 42709U 17026A   17252.13001323 -.00000102  00000-0  00000+0 0  9991
2 42709   1.6569 209.7781 3488084 223.0379 102.9993  1.20399114  2012
